ONEWEB-0195             
1 48240U 21031AG  23349.35023233  .00000172  00000+0  42956-3 0  9995
2 48240  87.8978 111.7914 0002102 109.9836 250.1521 13.14497044127960
ONEWEB-0201             
1 48241U 21031AH  23349.41529486  .00000091  00000+0  21135-3 0  9990
2 48241  87.8969 111.8077 0001780 105.3982 254.7345 13.14499645128206
ONEWEB-0207             
1 48242U 21031AJ  23349.39470002  .00000033  00000+0  54315-4 0  9990
2 48242  87.8966 111.7813 0001683  97.5214 262.6107 13.14510572128110
ONEWEB-0208             
1 48243U 21031AK  23349.37641046 -.00000094  00000+0 -28884-3 0  9997
2 48243  87.8964 111.8012 0001808 106.2382 253.8947 13.14501390128127
ONEWEB-0200             
1 48244U 21031AL  23349.41607980  .00005855  00000+0  15753-1 0  9999
2 48244  87.8974 111.7910 0002165 115.8750 244.2603 13.14478886128055
ONEWEB-0217             
1 48245U 21031AM  23349.35579752  .00000072  00000+0  16043-3 0  9999
2 48245  87.8978 111.7871 0002010 115.0585 245.0753 13.14504537127993
ONEWEB-0211             
1 48767U 21045A   23349.27749476 -.00000466  00000+0 -12724-2 0  9996
2 48767  87.9005  81.3134 0001658 112.2672 247.8634 13.15532733124121
ONEWEB-0223             
1 48768U 21045B   23349.29964459 -.00001364  00000+0 -36583-2 0  9996
2 48768  87.9003  81.3104 0001793 123.8276 236.3025 13.15551122124114
